OBJECT_NAME,OBJECT_ID,EPOCH,MEAN_MOTION,ECCENTRICITY,INCLINATION,RA_OF_ASC_NODE,ARG_OF_PERICENTER,MEAN_ANOMALY,EPHEMERIS_TYPE,CLASSIFICATION_TYPE,NORAD_CAT_ID,ELEMENT_SET_NO,REV_AT_EPOCH,BSTAR,MEAN_MOTION_DOT,MEAN_MOTION_DDOT
CELESTIS-02 & TAURUS R/B,1998-007D,2026-03-01T03:41:32.993376,14.22450448,.00630547,108.0097,114.2250,316.3268,59.4763,0,U,25160,999,45515,.65864856E-4,.2E-6,0