CELESTIS-02 & TAURUS R/B
1 25160U 98007D   26060.15385409  .00000020  00000+0  65865-4 0  9992
2 25160 108.0097 114.2250 0063054 316.3268  59.4763 14.22450448455151
